OBJECT_NAME,OBJECT_ID,EPOCH,MEAN_MOTION,ECCENTRICITY,INCLINATION,RA_OF_ASC_NODE,ARG_OF_PERICENTER,MEAN_ANOMALY,EPHEMERIS_TYPE,CLASSIFICATION_TYPE,NORAD_CAT_ID,ELEMENT_SET_NO,REV_AT_EPOCH,BSTAR,MEAN_MOTION_DOT,MEAN_MOTION_DDOT
ION SCV-010,2023-054Q,2026-07-06T18:18:21.292416,15.26373536,.0014166,97.3750,77.0134,130.5192,229.7283,0,U,56192,999,17918,.16194E-3,.4149E-4,0
TELEOS-2,2023-057C,2026-07-06T00:26:26.622816,14.96460130,.00053728,9.9986,67.0699,278.7572,81.2033,0,U,56310,999,17562,.47401633E-3,.6226E-4,0
SNIPE 4,2023-072B,2026-07-06T19:15:42.550848,15.43142817,.0004084,97.5241,34.4383,242.0913,117.9921,0,U,56744,999,17313,.39267E-3,.17319E-3,0
SNIPE 2,2023-072C,2026-07-06T20:26:07.494432,15.47908152,.0002788,97.5229,37.6725,276.4955,83.5978,0,U,56745,999,17328,.45274E-3,.2353E-3,0
2023-072G,2023-072G,2026-07-06T20:50:39.403968,15.51762172,.0001671,97.4884,36.5170,247.6107,112.4968,0,U,56749,999,17351,.45266E-3,.26955E-3,0
GEISAT PRECURSOR,2023-084C,2026-07-06T20:14:31.315200,15.34929604,.0004076,97.6247,329.4498,269.1413,90.9362,0,U,56934,999,17054,.17492E-3,.5841E-4,0
BLACKJACK ACES-3,2023-084U,2026-07-06T09:51:57.271392,15.18666564,.0000948,97.6236,322.7521,325.5482,34.5690,0,U,56950,999,17008,.22164E-3,.4523E-4,0
BLACKJACK ACES-2,2023-084Z,2026-07-06T10:00:32.008032,15.18660474,.0001026,97.6232,322.8424,142.4002,217.7303,0,U,56955,999,17009,.25746E-3,.5265E-4,0
BLACKJACK ACES-1,2023-084AA,2026-07-06T16:02:26.495808,15.18709296,.0001525,97.6222,322.8680,126.6026,233.5348,0,U,56956,999,11985,.28558E-3,.5856E-4,0
ION SCV-011,2023-084AB,2026-07-06T12:05:32.759232,15.29037737,.0006538,98.1386,16.5753,340.1748,19.9235,0,U,56957,999,16876,.15636223E-3,.4322E-4,0
GHOST-3,2023-084AC,2026-07-06T19:29:17.332224,15.48572947,.0006273,97.6237,337.4481,214.7023,145.3818,0,U,56958,999,17105,.27756E-3,.14716E-3,0
AFR-1,2023-084AJ,2026-07-06T20:53:08.686752,15.28727633,.0008966,97.6299,325.0398,268.9100,91.1112,0,U,56964,999,17023,.14228E-3,.3897E-4,0
METEOR-M2 3,2023-091A,2026-07-06T20:12:43.068096,14.24048471,.0005106,98.6077,242.4173,108.9539,251.2194,0,U,57166,999,15731,.1426E-4,-.1E-6,0
UMKA 1 (RS40S),2023-091G,2026-07-06T19:57:04.061664,15.21058028,.0013759,97.5037,246.4545,56.6710,303.5840,0,U,57172,999,16699,.22037E-3,.4836E-4,0
2023-091H,2023-091H,2026-07-06T19:38:14.063712,15.29090444,.0010397,97.5035,251.1734,52.6063,307.6122,0,U,57173,999,16730,.31494E-3,.8832E-4,0
2023-091J,2023-091J,2026-07-06T19:37:40.721952,15.14072262,.0014791,97.5042,240.6347,82.2474,278.0437,0,U,57174,999,16660,.20245E-3,.3626E-4,0
CUBEBEL 2 (EU11S),2023-091K,2026-07-06T19:29:19.645152,15.29680285,.0010365,97.5036,251.2095,53.9742,306.2457,0,U,57175,999,16730,.35504E-3,.10151E-3,0
SITRO-AIS 5 (KATYS),2023-091L,2026-07-06T19:48:35.538048,15.29934163,.0011548,97.5046,251.9164,41.1166,319.0942,0,U,57176,999,16734,.30096E-3,.8662E-4,0
ZORKIY-2M 1,2023-091M,2026-07-06T19:35:36.038976,15.21176521,.0014173,97.5078,246.7213,53.7832,306.4711,0,U,57177,999,16698,.24098E-3,.5314E-4,0
CUBESX-HSE 3 (RS42S),2023-091N,2026-07-06T20:10:58.957824,15.31740654,.0010559,97.5078,253.6818,31.4602,328.7269,0,U,57178,999,16743,.32784E-3,.9987E-4,0
MONITOR-3 (RS58S),2023-091Q,2026-07-06T20:15:16.525728,15.28260252,.0011877,97.5069,251.4381,38.2651,321.9429,0,U,57180,999,16729,.3072E-3,.84E-4,0
MONITOR-4 (RS57S),2023-091S,2026-07-06T19:43:32.763072,15.28345651,.0011875,97.5063,251.3882,38.6901,321.5186,0,U,57182,999,16729,.28502E-3,.7808E-4,0
MONITOR-2 (RS39S),2023-091U,2026-07-06T19:28:42.660768,15.19102670,.0012155,97.5059,245.9686,51.0392,309.1923,0,U,57184,999,16693,.18488E-3,.3817E-4,0
SVYATOBOR 1 (RS60S),2023-091X,2026-07-06T20:27:14.184000,15.26968333,.0009603,97.5076,251.7811,33.2161,326.9679,0,U,57187,999,16731,.27248E-3,.7148E-4,0
HORS 1,2023-091Y,2026-07-06T20:04:21.930816,15.27083101,.0009073,97.5052,251.5250,33.5328,326.6484,0,U,57188,999,16731,.26589E-3,.6997E-4,0
VIZARD-METEO (RS38S),2023-091Z,2026-07-06T19:37:14.439072,15.36687284,.0006487,97.5078,257.7036,12.6912,347.4494,0,U,57189,999,16770,.37131E-3,.13237E-3,0
SITRO-AIS 6 (CHIRKIN),2023-091AC,2026-07-06T20:24:10.829376,15.26330776,.0012021,97.5054,250.9549,44.6792,315.5413,0,U,57192,999,16728,.31258E-3,.806E-4,0
SITRO-AIS 8 (ANOKHIN),2023-091AD,2026-07-06T19:22:57.091008,15.32702864,.0010382,97.5043,253.5680,37.2453,322.9506,0,U,57193,999,16745,.36638E-3,.11514E-3,0
SITRO-AIS 7 (FARTUSHNIY),2023-091AE,2026-07-06T19:00:09.455040,15.26007809,.0011976,97.5050,250.7110,45.9726,314.2496,0,U,57194,999,16726,.31904E-3,.8149E-4,0
AVION KALUGA 650,2023-091AF,2026-07-06T20:09:27.630432,15.20573191,.0011216,97.5076,247.3381,49.5016,310.7195,0,U,57195,999,16701,.22774E-3,.4925E-4,0
