ION SCV-010             
1 56192U 23054Q   26187.76274644  .00004149  00000+0  16194-3 0  9992
2 56192  97.3750  77.0134 0014166 130.5192 229.7283 15.26373536179187
TELEOS-2                
1 56310U 23057C   26187.01836369  .00006226  00000+0  47402-3 0  9997
2 56310   9.9986  67.0699 0005372 278.7572  81.2033 14.96460130175622
SNIPE 4                 
1 56744U 23072B   26187.80257582  .00017319  00000+0  39267-3 0  9991
2 56744  97.5241  34.4383 0004084 242.0913 117.9921 15.43142817173139
SNIPE 2                 
1 56745U 23072C   26187.85147563  .00023530  00000+0  45274-3 0  9991
2 56745  97.5229  37.6725 0002788 276.4955  83.5978 15.47908152173289
2023-072G               
1 56749U 23072G   26187.86851162  .00026955  00000+0  45266-3 0  9998
2 56749  97.4884  36.5170 0001671 247.6107 112.4968 15.51762172173512
GEISAT PRECURSOR        
1 56934U 23084C   26187.84341800  .00005841  00000+0  17492-3 0  9999
2 56934  97.6247 329.4498 0004076 269.1413  90.9362 15.34929604170545
BLACKJACK ACES-3        
1 56950U 23084U   26187.41107953  .00004523  00000+0  22164-3 0  9997
2 56950  97.6236 322.7521 0000948 325.5482  34.5690 15.18666564170083
BLACKJACK ACES-2        
1 56955U 23084Z   26187.41703713  .00005265  00000+0  25746-3 0  9991
2 56955  97.6232 322.8424 0001026 142.4002 217.7303 15.18660474170090
BLACKJACK ACES-1        
1 56956U 23084AA  26187.66836222  .00005856  00000+0  28558-3 0  9991
2 56956  97.6222 322.8680 0001525 126.6026 233.5348 15.18709296119856
ION SCV-011             
1 56957U 23084AB  26187.50385138  .00004322  00000+0  15636-3 0  9990
2 56957  98.1386  16.5753 0006538 340.1748  19.9235 15.29037737168766
GHOST-3                 
1 56958U 23084AC  26187.81200616  .00014716  00000+0  27756-3 0  9996
2 56958  97.6237 337.4481 0006273 214.7023 145.3818 15.48572947171052
AFR-1                   
1 56964U 23084AJ  26187.87023943  .00003897  00000+0  14228-3 0  9993
2 56964  97.6299 325.0398 0008966 268.9100  91.1112 15.28727633170231
METEOR-M2 3             
1 57166U 23091A   26187.84216514 -.00000010  00000+0  14260-4 0  9993
2 57166  98.6077 242.4173 0005106 108.9539 251.2194 14.24048471157310
UMKA 1 (RS40S)          
1 57172U 23091G   26187.83129701  .00004836  00000+0  22037-3 0  9999
2 57172  97.5037 246.4545 0013759  56.6710 303.5840 15.21058028166991
2023-091H               
1 57173U 23091H   26187.81821833  .00008832  00000+0  31494-3 0  9990
2 57173  97.5035 251.1734 0010397  52.6063 307.6122 15.29090444167305
2023-091J               
1 57174U 23091J   26187.81783243  .00003626  00000+0  20245-3 0  9991
2 57174  97.5042 240.6347 0014791  82.2474 278.0437 15.14072262166608
CUBEBEL 2 (EU11S)       
1 57175U 23091K   26187.81203293  .00010151  00000+0  35504-3 0  9999
2 57175  97.5036 251.2095 0010365  53.9742 306.2457 15.29680285167306
SITRO-AIS 5 (KATYS)     
1 57176U 23091L   26187.82541132  .00008662  00000+0  30096-3 0  9993
2 57176  97.5046 251.9164 0011548  41.1166 319.0942 15.29934163167347
ZORKIY-2M 1             
1 57177U 23091M   26187.81638934  .00005314  00000+0  24098-3 0  9996
2 57177  97.5078 246.7213 0014173  53.7832 306.4711 15.21176521166987
CUBESX-HSE 3 (RS42S)    
1 57178U 23091N   26187.84096016  .00009987  00000+0  32784-3 0  9990
2 57178  97.5078 253.6818 0010559  31.4602 328.7269 15.31740654167439
MONITOR-3 (RS58S)       
1 57180U 23091Q   26187.84394127  .00008400  00000+0  30720-3 0  9994
2 57180  97.5069 251.4381 0011877  38.2651 321.9429 15.28260252167290
MONITOR-4 (RS57S)       
1 57182U 23091S   26187.82190698  .00007808  00000+0  28502-3 0  9997
2 57182  97.5063 251.3882 0011875  38.6901 321.5186 15.28345651167294
MONITOR-2 (RS39S)       
1 57184U 23091U   26187.81160487  .00003817  00000+0  18488-3 0  9999
2 57184  97.5059 245.9686 0012155  51.0392 309.1923 15.19102670166930
SVYATOBOR 1 (RS60S)     
1 57187U 23091X   26187.85224750  .00007148  00000+0  27248-3 0  9995
2 57187  97.5076 251.7811 0009603  33.2161 326.9679 15.26968333167319
HORS 1                  
1 57188U 23091Y   26187.83636494  .00006997  00000+0  26589-3 0  9994
2 57188  97.5052 251.5250 0009073  33.5328 326.6484 15.27083101167311
VIZARD-METEO (RS38S)    
1 57189U 23091Z   26187.81752823  .00013237  00000+0  37131-3 0  9998
2 57189  97.5078 257.7036 0006487  12.6912 347.4494 15.36687284167700
SITRO-AIS 6 (CHIRKIN)   
1 57192U 23091AC  26187.85012534  .00008060  00000+0  31258-3 0  9996
2 57192  97.5054 250.9549 0012021  44.6792 315.5413 15.26330776167284
SITRO-AIS 8 (ANOKHIN)   
1 57193U 23091AD  26187.80760522  .00011514  00000+0  36638-3 0  9994
2 57193  97.5043 253.5680 0010382  37.2453 322.9506 15.32702864167450
SITRO-AIS 7 (FARTUSHNIY)
1 57194U 23091AE  26187.79177610  .00008149  00000+0  31904-3 0  9994
2 57194  97.5050 250.7110 0011976  45.9726 314.2496 15.26007809167266
AVION KALUGA 650        
1 57195U 23091AF  26187.83990313  .00004925  00000+0  22774-3 0  9996
2 57195  97.5076 247.3381 0011216  49.5016 310.7195 15.20573191167012
